[{"OBJECT_NAME":"STARLINK-5571","OBJECT_ID":"2023-013BB","EPOCH":"2026-03-09T23:08:17.314656","MEAN_MOTION":15.03346189,"ECCENTRICITY":5.26e-5,"INCLINATION":43.0018,"RA_OF_ASC_NODE":285.577,"ARG_OF_PERICENTER":229.744,"MEAN_ANOMALY":130.3357,"EPHEMERIS_TYPE":0,"CLASSIFICATION_TYPE":"U","NORAD_CAT_ID":55380,"ELEMENT_SET_NO":999,"REV_AT_EPOCH":17190,"BSTAR":0.00010376908,"MEAN_MOTION_DOT":1.228e-5,"MEAN_MOTION_DDOT":0},{"OBJECT_NAME":"OBJECT G","OBJECT_ID":"2024-205G","EPOCH":"2026-03-09T23:05:54.449664","MEAN_MOTION":15.09392775,"ECCENTRICITY":0.00211709,"INCLINATION":97.4199,"RA_OF_ASC_NODE":141.9686,"ARG_OF_PERICENTER":130.0324,"MEAN_ANOMALY":230.2768,"EPHEMERIS_TYPE":0,"CLASSIFICATION_TYPE":"U","NORAD_CAT_ID":61900,"ELEMENT_SET_NO":999,"REV_AT_EPOCH":7318,"BSTAR":0.00059967322,"MEAN_MOTION_DOT":9.576e-5,"MEAN_MOTION_DDOT":0}]
